[{"OBJECT_NAME":"BUFENG 1B","OBJECT_ID":"2019-032B","EPOCH":"2026-03-09T19:57:27.457920","MEAN_MOTION":15.25619535,"ECCENTRICITY":0.00242037,"INCLINATION":44.9701,"RA_OF_ASC_NODE":192.0248,"ARG_OF_PERICENTER":123.8847,"MEAN_ANOMALY":236.4342,"EPHEMERIS_TYPE":0,"CLASSIFICATION_TYPE":"U","NORAD_CAT_ID":44311,"ELEMENT_SET_NO":999,"REV_AT_EPOCH":37256,"BSTAR":0.00059375374,"MEAN_MOTION_DOT":0.00015236,"MEAN_MOTION_DDOT":0},{"OBJECT_NAME":"STARLINK-35471","OBJECT_ID":"2025-223L","EPOCH":"2026-03-09T22:03:55.960416","MEAN_MOTION":15.30215247,"ECCENTRICITY":0.00011472,"INCLINATION":53.1576,"RA_OF_ASC_NODE":292.9085,"ARG_OF_PERICENTER":57.7035,"MEAN_ANOMALY":302.4077,"EPHEMERIS_TYPE":0,"CLASSIFICATION_TYPE":"U","NORAD_CAT_ID":65864,"ELEMENT_SET_NO":999,"REV_AT_EPOCH":2424,"BSTAR":0.0011246856,"MEAN_MOTION_DOT":0.00033115,"MEAN_MOTION_DDOT":0}]
